     2              NAVIGATION DATA                         RINEX VERSION / TYPE
CCRINEXN V1.6.0 UX  CDDIS               14-APR-24 23:31     PGM / RUN BY / DATE 
IGS BROADCAST EPHEMERIS FILE                                COMMENT             
    0.2794D-07  0.1490D-07 -0.1192D-06 -0.5960D-07          ION ALPHA           
    0.1290D+06  0.3277D+05 -0.2621D+06  0.2621D+06          ION BETA            
    0.279396772385D-08 0.444089209850D-14   147456     2310 DELTA-UTC: A0,A1,T,W
    18                                                      LEAP SECONDS        
                                                            END OF HEADER       
22 24  4 13  9 59 44.0 0.120978802443D-05-0.568434188608D-11 0.000000000000D+00
    0.710000000000D+02 0.785937500000D+02 0.448697261471D-08-0.685920048535D+00
    0.414997339249D-05 0.143520929851D-01 0.911951065063D-05 0.515371233177D+04
    0.554384000000D+06-0.128522515297D-06 0.891137541307D+00-0.121071934700D-06
    0.961734055970D+00 0.207593750000D+03-0.113724210807D+01-0.812998150351D-08
   -0.217509060125D-09 0.100000000000D+01 0.230900000000D+04 0.000000000000D+00
    0.200000000000D+01 0.000000000000D+00-0.111758708954D-07 0.710000000000D+02
    0.547218000000D+06 0.400000000000D+01 0.000000000000D+00 0.000000000000D+00
27 24  4 13  9 59 44.0-0.183465890586D-04-0.227373675443D-11 0.000000000000D+00
    0.210000000000D+02 0.840312500000D+02 0.437053919336D-08-0.114393583896D+01
    0.450015068054D-05 0.125571797835D-01 0.399537384510D-05 0.515368251610D+04
    0.554384000000D+06 0.303611159325D-06 0.184141892658D+01 0.104308128357D-06
    0.962540751423D+00 0.303000000000D+03 0.783489710691D+00-0.815462538716D-08
   -0.496449250533D-10 0.100000000000D+01 0.230900000000D+04 0.000000000000D+00
    0.200000000000D+01 0.000000000000D+00 0.186264514923D-08 0.210000000000D+02
    0.554393000000D+06 0.400000000000D+01 0.000000000000D+00 0.000000000000D+00
30 24  4 13  9 59 44.0-0.405902974307D-03 0.557065504836D-11 0.000000000000D+00
    0.360000000000D+02-0.110937500000D+02 0.541486840815D-08 0.206971903716D+01
   -0.594183802605D-06 0.703989143949D-02 0.757165253162D-05 0.515365596581D+04
    0.554384000000D+06-0.167638063431D-06-0.243928048948D+00-0.521540641785D-07
    0.935699133430D+00 0.224593750000D+03-0.249028379706D+01-0.824605776712D-08
   -0.246438836595D-09 0.100000000000D+01 0.230900000000D+04 0.000000000000D+00
    0.200000000000D+01 0.000000000000D+00 0.372529029846D-08 0.360000000000D+02
    0.553158000000D+06 0.400000000000D+01 0.000000000000D+00 0.000000000000D+00
31 24  4 13  9 59 44.0-0.228014774621D-03 0.113686837722D-12 0.000000000000D+00
    0.240000000000D+02-0.108750000000D+02 0.505306762341D-08 0.134948326511D+01
   -0.344589352608D-06 0.104992932174D-01 0.762753188610D-05 0.515369953728D+04
    0.554384000000D+06-0.104308128357D-06-0.223897215772D+00 0.193715095520D-06
    0.954562108863D+00 0.233406250000D+03 0.668228539864D+00-0.821998525252D-08
   -0.330370904131D-09 0.100000000000D+01 0.230900000000D+04 0.000000000000D+00
    0.200000000000D+01 0.000000000000D+00-0.130385160446D-07 0.240000000000D+02
    0.547716000000D+06 0.400000000000D+01 0.000000000000D+00 0.000000000000D+00
 2 24  4 13 10  0  0.0-0.454143155366D-03 0.648014975013D-11 0.000000000000D+00
    0.250000000000D+02-0.409062500000D+02 0.434803825610D-08-0.954611899280D+00
   -0.202469527721D-05 0.160429965472D-01 0.347197055817D-05 0.515370639038D+04
    0.554400000000D+06-0.210478901863D-06 0.281221824994D+01 0.577419996262D-07
    0.967613931884D+00 0.321843750000D+03-0.120537240325D+01-0.840606443204D-08
    0.646455498895D-10 0.100000000000D+01 0.230900000000D+04 0.000000000000D+00
    0.200000000000D+01 0.000000000000D+00-0.176951289177D-07 0.250000000000D+02
    0.547218000000D+06 0.400000000000D+01 0.000000000000D+00 0.000000000000D+00
 3 24  4 13 10  0  0.0 0.308115035296D-03 0.212594386539D-10 0.000000000000D+00
    0.127000000000D+03-0.782812500000D+02 0.375051336679D-08 0.180677282789D+01
   -0.407546758652D-05 0.532044295687D-02 0.877678394318D-05 0.515374996948D+04
    0.554400000000D+06-0.838190317154D-07-0.233762508146D+01-0.894069671631D-07
    0.983832399083D+00 0.221156250000D+03 0.106563659686D+01-0.765603319023D-08
    0.283940398686D-09 0.100000000000D+01 0.230900000000D+04 0.000000000000D+00
    0.200000000000D+01 0.000000000000D+00 0.186264514923D-08 0.127000000000D+03
    0.547218000000D+06 0.400000000000D+01 0.000000000000D+00 0.000000000000D+00
 4 24  4 13 10  0  0.0 0.337727833539D-03 0.875388650456D-11 0.000000000000D+00
    0.198000000000D+03-0.137187500000D+02 0.463412160119D-08-0.152783219294D+01
   -0.918284058571D-06 0.279376539402D-02 0.752136111260D-05 0.515375777054D+04
    0.554400000000D+06 0.372529029846D-08-0.125844221720D+01-0.223517417908D-07
    0.964267727678D+00 0.234906250000D+03-0.294626365463D+01-0.794604527039D-08
    0.468948105000D-09 0.100000000000D+01 0.230900000000D+04 0.000000000000D+00
    0.200000000000D+01 0.000000000000D+00-0.465661287308D-08 0.198000000000D+03
    0.547218000000D+06 0.400000000000D+01 0.000000000000D+00 0.000000000000D+00
 5 24  4 13 10  0  0.0-0.168970320374D-03-0.136424205266D-11 0.000000000000D+00
    0.910000000000D+02-0.100625000000D+03 0.404588281297D-08-0.851474360673D+00
   -0.498257577419D-05 0.575477525126D-02 0.827014446259D-05 0.515359819031D+04
    0.554400000000D+06-0.335276126862D-07-0.238837692366D+01 0.987201929092D-07
    0.970833024601D+00 0.225000000000D+03 0.123350177975D+01-0.788532845558D-08
    0.239295681911D-09 0.100000000000D+01 0.230900000000D+04 0.000000000000D+00
    0.200000000000D+01 0.000000000000D+00-0.107102096081D-07 0.910000000000D+02
    0.547218000000D+06 0.400000000000D+01 0.000000000000D+00 0.000000000000D+00
 6 24  4 13 10  0  0.0 0.324009917676D-03-0.179625203600D-10 0.000000000000D+00
    0.390000000000D+02-0.579687500000D+02 0.382515933324D-08 0.308470771752D+01
   -0.294670462608D-05 0.308200612199D-02 0.309757888317D-05 0.515360189438D+04
    0.554400000000D+06-0.130385160446D-07 0.290950596389D+01 0.186264514923D-08
    0.989946616919D+00 0.336750000000D+03-0.708382169635D+00-0.793925927345D-08
   -0.121433629627D-09 0.100000000000D+01 0.230900000000D+04 0.000000000000D+00
    0.200000000000D+01 0.000000000000D+00 0.419095158577D-08 0.390000000000D+02
    0.547842000000D+06 0.400000000000D+01 0.000000000000D+00 0.000000000000D+00
 8 24  4 13 10  0  0.0 0.119080767035D-03 0.233058017329D-10 0.000000000000D+00
    0.180000000000D+02 0.813125000000D+02 0.451911681078D-08-0.122865925173D+01
    0.427477061748D-05 0.944903329946D-02 0.415183603764D-05 0.515361993027D+04
    0.554400000000D+06 0.145286321640D-06 0.181531300570D+01-0.167638063431D-06
    0.953546731072D+00 0.296125000000D+03 0.353145249803D+00-0.818605526777D-08
   -0.357157734196D-12 0.100000000000D+01 0.230900000000D+04 0.000000000000D+00
    0.200000000000D+01 0.000000000000D+00 0.465661287308D-08 0.180000000000D+02
    0.547218000000D+06 0.400000000000D+01 0.000000000000D+00 0.000000000000D+00
 9 24  4 13 10  0  0.0 0.158778857440D-03 0.136424205266D-10 0.000000000000D+00
    0.130000000000D+02-0.154062500000D+02 0.481091467962D-08-0.772744630064D+00
   -0.102445483208D-05 0.267183850519D-02 0.787153840065D-05 0.515368393326D+04
    0.554400000000D+06-0.428408384323D-07-0.131765338027D+01 0.000000000000D+00
    0.957811899453D+00 0.229875000000D+03 0.199842236259D+01-0.807069331963D-08
    0.483234414367D-09 0.100000000000D+01 0.230900000000D+04 0.000000000000D+00
    0.200000000000D+01 0.000000000000D+00 0.931322574616D-09 0.130000000000D+02
    0.547338000000D+06 0.400000000000D+01 0.000000000000D+00 0.000000000000D+00
10 24  4 13 10  0  0.0-0.837724655867D-05-0.432009983342D-11 0.000000000000D+00
    0.171000000000D+03-0.823750000000D+02 0.386408952627D-08 0.762396873598D+00
   -0.433810055256D-05 0.929104909301D-02 0.790692865848D-05 0.515368897247D+04
    0.554400000000D+06-0.132247805595D-06-0.234019553678D+01 0.912696123123D-07
    0.983506311717D+00 0.241437500000D+03-0.236731432215D+01-0.775353725166D-08
    0.161435295857D-09 0.100000000000D+01 0.230900000000D+04 0.000000000000D+00
    0.280000000000D+01 0.000000000000D+00 0.232830643654D-08 0.171000000000D+03
    0.553788000000D+06 0.400000000000D+01 0.000000000000D+00 0.000000000000D+00
11 24  4 13 10  0  0.0-0.635127536953D-03-0.105728759081D-10 0.000000000000D+00
    0.122000000000D+03-0.587812500000D+02 0.429767901558D-08-0.197083792600D+01
   -0.293925404549D-05 0.123517797328D-02 0.285543501377D-05 0.515369308281D+04
    0.554400000000D+06-0.745058059692D-07 0.294353483697D+01-0.633299350738D-07
    0.966444560021D+00 0.329468750000D+03-0.251767630319D+01-0.816641159239D-08
   -0.925038531568D-10 0.100000000000D+01 0.230900000000D+04 0.000000000000D+00
    0.200000000000D+01 0.000000000000D+00-0.838190317154D-08 0.634000000000D+03
    0.547218000000D+06 0.400000000000D+01 0.000000000000D+00 0.000000000000D+00
12 24  4 13 10  0  0.0-0.496157445014D-03-0.341060513165D-11 0.000000000000D+00
    0.150000000000D+02 0.779375000000D+02 0.432410868791D-08 0.148753650943D+01
    0.372529029846D-05 0.891683297232D-02 0.991113483906D-05 0.515367332840D+04
    0.554400000000D+06-0.130385160446D-06 0.869923058187D+00-0.236555933952D-06
    0.962933024128D+00 0.188187500000D+03 0.143756028592D+01-0.780282501898D-08
   -0.370729728095D-09 0.100000000000D+01 0.230900000000D+04 0.000000000000D+00
    0.200000000000D+01 0.000000000000D+00-0.125728547573D-07 0.150000000000D+02
    0.547326000000D+06 0.400000000000D+01 0.000000000000D+00 0.000000000000D+00
